TIANWANG 1C (TW-1C)     
1 40926U 15051B   17109.86863522  .00008116  00000-0  19342-3 0  9999
2 40926  97.2366 149.8961 0012997  29.9819  57.1007 15.41754204 87930
TIANWANG 1B (TW-1B)     
1 40927U 15051C   17109.90435303  .00007790  00000-0  19249-3 0  9990
2 40927  97.2452 149.9729 0013062  39.2571  85.5373 15.40670197 87896
TIANWANG 1A (TW-1A)     
1 40928U 15051D   17109.91369525  .00004065  00000-0  11929-3 0  9993
2 40928  97.2334 146.7737 0014566  53.3354  68.9877 15.35625842 87756
LAPAN-A2 (IO-86)        
1 40931U 15052B   17109.68136492  .00000822  00000-0  25613-4 0  9990
2 40931   5.9992 289.8419 0012322 135.8685 224.2470 14.76523414 84303
LQSAT                   
1 40958U 15057A   17109.89491365  .00000032  00000-0  12738-4 0  9997
2 40958  97.9801 186.2214 0016808 252.2354 107.7008 14.72955828 82534
CHUBUSAT-2              
1 41338U 16012B   17109.44942119  .00000481  00000-0  31153-4 0  9991
2 41338  31.0024 125.2958 0013969 198.2503 161.7631 14.99698688 64169
CHUBUSAT-3              
1 41339U 16012C   17109.45227592  .00000423  00000-0  26378-4 0  9993
2 41339  31.0098 124.5179 0013997 205.7013 154.2927 14.99907209 64144
OUFTI-1                 
1 41458U 16025C   17109.92754021  .00001864  00000-0  10351-3 0  9996
2 41458  98.1893 144.1635 0176310 123.8165 237.9986 15.02852899 53832
E-ST@R-II               
1 41459U 16025D   17109.87611948  .00001813  00000-0  10044-3 0  9994
2 41459  98.1933 144.0741 0178121 124.2837 237.5403 15.02734067 53812
AAUSAT 4                
1 41460U 16025E   17109.83972484  .00004283  00000-0  23267-3 0  9992
2 41460  98.1833 144.0992 0169982 123.3577 238.4039 15.03507322 53826
NUSAT 1 (LO-87)         
1 41557U 16033B   17109.82092873  .00002093  00000-0  82131-4 0  9995
2 41557  97.4654 189.3392 0013665 207.4958 152.5559 15.26808975 49523
BEESAT-4                
1 41619U 16040W   17109.69154611  .00002234  00000-0  10530-3 0  9996
2 41619  97.4680 172.6337 0010469 272.6465  87.3572 15.20497625 33704
PRATHAM                 
1 41783U 16059A   17109.74617557  .00000098  00000-0  28596-4 0  9995
2 41783  98.1727 171.7057 0033195 346.3755  13.6547 14.62823030 30054
ALSAT 1N                
1 41789U 16059G   17109.85128909  .00000090  00000-0  26406-4 0  9991
2 41789  98.1720 172.1978 0027925 341.1962  18.8191 14.64029604 30078
NAYIF-1 (EO-88)         
1 42017U 17008BX  17109.82293381  .00002723  00000-0  11982-3 0  9992
2 42017  97.5007 171.3822 0008225  72.3810 287.8324 15.22710337  9606
